GLOBALSTAR M057         
1 25943U 99058A   24235.92116888 -.00000027  00000+0  59503-3 0  9997
2 25943  51.9978 114.6603 0002777 106.2638 253.8517 12.24792213130383
GLOBALSTAR M059         
1 25944U 99058B   24236.12672001 -.00000083  00000+0  45011-4 0  9997
2 25944  52.0022 293.5169 0000573 109.0176 270.2716 11.99964518127010
GLOBALSTAR M056         
1 25945U 99058C   24235.94061561  .00000024  00000+0  12989-2 0  9990
2 25945  51.9973 303.6373 0000344 280.9894 250.6924 12.04775990126671
GLOBALSTAR M031         
1 25946U 99058D   24235.94365513 -.00000140  00000+0 -50396-3 0  9991
2 25946  51.9937 213.8077 0001455 298.2681  77.9029 12.16013832128261
GLOBALSTAR M039         
1 25961U 99062A   24235.89039358 -.00000027  00000+0  42869-3 0  9991
2 25961  51.9840  97.2526 0003508  52.0951 308.0232 12.62300715142542
GLOBALSTAR M034         
1 25962U 99062B   24235.79305916 -.00000047  00000+0  54168-3 0  9994
2 25962  51.9866  67.0300 0013568 194.8136 178.2504 11.79430905103181
GLOBALSTAR M029         
1 25963U 99062C   24235.86473456 -.00000068  00000+0  22373-3 0  9994
2 25963  51.9784 182.5144 0002319 258.3538 116.4848 11.99882224133314
GLOBALSTAR M061         
1 25964U 99062D   24235.96861150 -.00000077  00000+0  46794-4 0  9992
2 25964  51.9762 246.6574 0006047 125.3864 243.4692 11.76763975 86071
